ONEWEB-0385             
1 49311U 21090AJ  21289.50001157  .00022597  00000-0  52228-3 0  9998
2 49311  87.3961 292.9583 0008148 244.7020 271.9931 15.42348345  1611
ONEWEB-0386             
1 49312U 21090AK  21289.50001157  .00023419  00000-0  57990-3 0  9994
2 49312  87.3963 292.9585 0003745 263.0170 238.7056 15.40294508  1601
ONEWEB-0387             
1 49313U 21090AL  21289.83335648  .00052332  00000-0  12502-2 0  9991
2 49313  87.3978 292.8404 0006891 278.6332 278.7992 15.41284391  1652
ONEWEB-0388             
1 49314U 21090AM  21289.50001157  .00023870  00000-0  63092-3 0  9997
2 49314  87.3989 292.9610 0005177 298.1618 189.3151 15.38288267  1594
